NORAD_CAT_ID,OBJECT_NAME,OBJECT_TYPE,EPOCH,MEAN_MOTION,ECCENTRICITY,INCLINATION,RA_OF_ASC_NODE,ARG_OF_PERICENTER,MEAN_ANOMALY,BSTAR,MEAN_MOTION_DOT,MEAN_MOTION_DDOT,TLE_LINE0,TLE_LINE1,TLE_LINE2,SEMIMAJOR_AXIS,PERIOD,APOGEE,PERIGEE,DECAYED
54787.0,STARLINK-5441,PAYLOAD,2023-07-25 00:01:59,15.08850777,9.67e-05,53.218,27.5623,90.9903,269.12,0.00015148,2.125e-05,0.0,0 STARLINK-5441,1 54787U 22175AF  23206.00138587  .00002125  00000-0  15148-3 0  9995,2 54787  53.2180  27.5623 0000967  90.9903 269.1200 15.08850777 35195,6917.847,95.437,540.381,539.043,0.0
54787.0,STARLINK-5441,PAYLOAD,2023-07-25 19:06:38,15.08839229,9.52e-05,53.2182,23.9943,100.7765,259.3334,9.4513e-05,1.217e-05,0.0,0 STARLINK-5441,1 54787U 22175AF  23206.79627861  .00001217  00000-0  94513-4 0  9994,2 54787  53.2182  23.9943 0000952 100.7765 259.3334 15.08839229 35314,6917.883,95.438,540.406,539.089,0.0
54787.0,STARLINK-5441,PAYLOAD,2023-07-26 22:08:10,15.08855564,0.0001201,53.218,18.9382,113.7823,246.3295,0.00022312,3.266e-05,0.0,0 STARLINK-5441,1 54787U 22175AF  23207.92234746  .00003266  00000-0  22312-3 0  9999,2 54787  53.2180  18.9382 0001201 113.7823 246.3295 15.08855564 35480,6917.833,95.437,540.529,538.867,0.0
54787.0,STARLINK-5441,PAYLOAD,2023-07-27 04:29:43,15.08841579,0.0001422,53.218,17.7463,80.1429,279.9723,-3.9039e-05,-9.09e-06,0.0,0 STARLINK-5441,1 54787U 22175AF  23208.18730821 -.00000909  00000-0 -39039-4 0  9991,2 54787  53.2180  17.7463 0001422  80.1429 279.9723 15.08841579 33365,6917.876,95.437,540.724,538.757,0.0
54787.0,STARLINK-5441,PAYLOAD,2023-07-27 20:23:36,15.08828243,0.0001549,53.2185,14.7752,82.48,277.6368,-6.9129e-05,-1.388e-05,0.0,0 STARLINK-5441,1 54787U 22175AF  23208.84972803 -.00001388  00000-0 -69129-4 0  9997,2 54787  53.2185  14.7752 0001549  82.4800 277.6368 15.08828243 35620,6917.916,95.438,540.853,538.71,0.0
54787.0,STARLINK-5441,PAYLOAD,2023-07-27 21:58:59,15.0883082,8.27e-05,53.218,14.4836,43.9152,316.1906,1.82e-05,2e-08,0.0,0 STARLINK-5441,1 54787U 22175AF  23208.91596461  .00000002  00000-0  18200-4 0  9991,2 54787  53.2180  14.4836 0000827  43.9152 316.1906 15.08830820 33477,6917.908,95.438,540.346,539.201,0.0
54787.0,STARLINK-5441,PAYLOAD,2023-07-28 04:20:31,15.08835348,9.71e-05,53.2184,13.291,66.5592,293.5502,2.3786e-05,9.1e-07,0.0,0 STARLINK-5441,1 54787U 22175AF  23209.18092425  .00000091  00000-0  23786-4 0  9995,2 54787  53.2184  13.2910 0000971  66.5592 293.5502 15.08835348 35674,6917.895,95.438,540.431,539.088,0.0
54787.0,STARLINK-5441,PAYLOAD,2023-07-28 17:03:36,15.08841878,6.75e-05,53.2205,10.9114,89.4004,270.7065,4.6347e-05,4.5e-06,0.0,0 STARLINK-5441,1 54787U 22175AF  23209.71084110  .00000450  00000-0  46347-4 0  9993,2 54787  53.2205  10.9114 0000675  89.4004 270.7065 15.08841878 33596,6917.875,95.437,540.207,539.273,0.0
54787.0,STARLINK-5441,PAYLOAD,2023-07-29 21:40:33,15.08847253,0.0001239,53.2159,5.5599,57.4686,302.6426,0.00024297,3.582e-05,0.0,0 STARLINK-5441,1 54787U 22175AF  23210.90316278  .00003582  00000-0  24297-3 0  9997,2 54787  53.2159   5.5599 0001239  57.4686 302.6426 15.08847253 33778,6917.858,95.437,540.58,538.866,0.0
54787.0,STARLINK-5441,PAYLOAD,2023-07-30 10:23:38,15.08842076,0.0001678,53.2151,3.1807,57.7483,302.3671,0.00014152,1.965e-05,0.0,0 STARLINK-5441,1 54787U 22175AF  23211.43308670  .00001965  00000-0  14152-3 0  9995,2 54787  53.2151   3.1807 0001678  57.7483 302.3671 15.08842076 33857,6917.874,95.437,540.9,538.578,0.0
54787.0,STARLINK-5441,PAYLOAD,2023-07-30 19:55:56,15.0885338,0.0001021,53.2178,1.3948,67.0063,293.1037,0.00020983,3.054e-05,0.0,0 STARLINK-5441,1 54787U 22175AF  23211.83051785  .00003054  00000-0  20983-3 0  9991,2 54787  53.2178   1.3948 0001021  67.0063 293.1037 15.08853380 33912,6917.839,95.437,540.411,538.998,0.0
54787.0,STARLINK-5441,PAYLOAD,2023-07-31 10:14:25,15.08841469,0.0001187,53.2152,358.7198,68.0671,292.0447,9.6479e-05,1.248e-05,0.0,0 STARLINK-5441,1 54787U 22175AF  23212.42668475  .00001248  00000-0  96479-4 0  9994,2 54787  53.2152 358.7198 0001187  68.0671 292.0447 15.08841469 34008,6917.876,95.437,540.562,538.92,0.0
54787.0,STARLINK-5441,PAYLOAD,2023-07-31 19:46:43,15.08849574,0.0001031,53.2165,356.9336,82.411,277.6999,0.00018354,2.635e-05,0.0,0 STARLINK-5441,1 54787U 22175AF  23212.82411969  .00002635  00000-0  18354-3 0  9998,2 54787  53.2165 356.9336 0001031  82.4110 277.6999 15.08849574 34064,6917.851,95.437,540.429,539.003,0.0
54787.0,STARLINK-5441,PAYLOAD,2023-08-01 08:29:49,15.08839416,8.58e-05,53.2188,354.5571,87.2736,272.8354,0.00011332,1.516e-05,0.0,0 STARLINK-5441,1 54787U 22175AF  23213.35404450  .00001516  00000-0  11332-3 0  9990,2 54787  53.2188 354.5571 0000858  87.2736 272.8354 15.08839416 34142,6917.882,95.438,540.341,539.154,0.0
54787.0,STARLINK-5441,PAYLOAD,2023-08-02 09:55:59,15.08837369,9.68e-05,53.2176,349.7981,87.1116,272.9987,3.5206e-05,2.73e-06,0.0,0 STARLINK-5441,1 54787U 22175AF  23214.41388536  .00000273  00000-0  35206-4 0  9990,2 54787  53.2176 349.7981 0000968  87.1116 272.9987 15.08837369 34309,6917.888,95.438,540.423,539.084,0.0
54787.0,STARLINK-5441,PAYLOAD,2023-08-02 16:17:31,15.08847045,0.0001202,53.2179,348.6099,96.316,263.7969,0.00013758,1.903e-05,0.0,0 STARLINK-5441,1 54787U 22175AF  23214.67884037  .00001903  00000-0  13758-3 0  9993,2 54787  53.2179 348.6099 0001202  96.3160 263.7969 15.08847045 34347,6917.859,95.437,540.555,538.892,0.0
54787.0,STARLINK-5441,PAYLOAD,2023-08-02 19:28:17,15.08854075,0.0001037,53.218,348.014,89.6231,270.488,0.00026298,3.902e-05,0.0,0 STARLINK-5441,1 54787U 22175AF  23214.81131657  .00003902  00000-0  26298-3 0  9996,2 54787  53.2180 348.0140 0001037  89.6231 270.4880 15.08854075 34360,6917.837,95.437,540.42,538.985,0.0
54787.0,STARLINK-5441,PAYLOAD,2023-08-03 16:08:19,15.08844261,0.0001016,53.2173,344.1491,95.5549,264.5559,0.00015007,2.102e-05,0.0,0 STARLINK-5441,1 54787U 22175AF  23215.67244220  .00002102  00000-0  15007-3 0  9999,2 54787  53.2173 344.1491 0001016  95.5549 264.5559 15.08844261 34490,6917.867,95.437,540.435,539.03,0.0
54787.0,STARLINK-5441,PAYLOAD,2023-08-04 08:02:10,15.08822892,5.68e-05,53.2177,341.1744,85.8117,274.294,-0.00023202,-3.976e-05,0.0,0 STARLINK-5441,1 54787U 22175AF  23216.33484862 -.00003976  00000-0 -23202-3 0  9999,2 54787  53.2177 341.1744 0000568  85.8117 274.2940 15.08822892 34595,6917.933,95.439,540.191,539.405,0.0
54787.0,STARLINK-5441,PAYLOAD,2023-08-04 15:59:06,15.08834865,0.0001056,53.2167,339.6871,92.9682,267.1431,0.00030722,4.604e-05,0.0,0 STARLINK-5441,1 54787U 22175AF  23216.66604713  .00004604  00000-0  30722-3 0  9996,2 54787  53.2167 339.6871 0001056  92.9682 267.1431 15.08834865 34641,6917.896,95.438,540.492,539.031,0.0
54787.0,STARLINK-5441,PAYLOAD,2023-08-05 14:14:30,15.08860812,0.000116,53.2149,335.5234,88.0227,272.0898,0.0014,0.00022076,0.0,0 STARLINK-5441,1 54787U 22175AF  23217.59340554  .00022076  00000-0  14000-2 0  9992,2 54787  53.2149 335.5234 0001160  88.0227 272.0898 15.08860812 34784,6917.817,95.436,540.484,538.879,0.0
54787.0,STARLINK-5441,PAYLOAD,2023-08-06 01:22:12,15.08855576,0.0001011,53.2166,333.4403,110.3112,249.7988,0.00080618,0.00012571,0.0,0 STARLINK-5441,1 54787U 22175AF  23218.05708500  .00012571  00000-0  80618-3 0  9991,2 54787  53.2166 333.4403 0001011 110.3112 249.7988 15.08855576 34855,6917.833,95.437,540.397,538.998,0.0
54787.0,STARLINK-5441,PAYLOAD,2023-08-06 10:54:31,15.08819186,0.0001196,53.2159,331.6559,115.2039,244.9077,-0.00030666,-5.162e-05,0.0,0 STARLINK-5441,1 54787U 22175AF  23218.45453274 -.00005162  00000-0 -30666-3 0  9998,2 54787  53.2159 331.6559 0001196 115.2039 244.9077 15.08819186 34915,6917.944,95.439,540.636,538.982,0.0
54787.0,STARLINK-5441,PAYLOAD,2023-08-06 18:51:27,15.08824216,8.91e-05,53.2193,330.1696,99.3531,260.7527,0.00035449,5.356e-05,0.0,0 STARLINK-5441,1 54787U 22175AF  23218.78573949  .00005356  00000-0  35449-3 0  9993,2 54787  53.2193 330.1696 0000891  99.3531 260.7527 15.08824216 34960,6917.929,95.439,540.41,539.177,0.0
54787.0,STARLINK-5441,PAYLOAD,2023-08-07 18:42:14,15.08864638,9.11e-05,53.2164,325.7107,88.6042,271.5054,0.0015485,0.00024459,0.0,0 STARLINK-5441,1 54787U 22175AF  23219.77934022  .00024459  00000-0  15485-2 0  9998,2 54787  53.2164 325.7107 0000911  88.6042 271.5054 15.08864638 35111,6917.805,95.436,540.3,539.04,0.0
54787.0,STARLINK-5441,PAYLOAD,2023-08-08 07:25:19,15.08865947,6.62e-05,53.2166,323.3319,92.8241,267.2827,0.0014799,0.0002336,0.0,0 STARLINK-5441,1 54787U 22175AF  23220.30925668  .00023360  00000-0  14799-2 0  9992,2 54787  53.2166 323.3319 0000662  92.8241 267.2827 15.08865947 35195,6917.801,95.436,540.124,539.208,0.0
54787.0,STARLINK-5441,PAYLOAD,2023-08-09 07:16:06,15.08851386,0.0001025,53.2162,318.8708,62.2469,297.8627,0.0010199,0.00015986,0.0,0 STARLINK-5441,1 54787U 22175AF  23221.30285248  .00015986  00000-0  10199-2 0  9991,2 54787  53.2162 318.8708 0001025  62.2469 297.8627 15.08851386 35345,6917.846,95.437,540.42,539.002,0.0
54787.0,STARLINK-5441,PAYLOAD,2023-08-09 16:48:25,15.08844692,7.79e-05,53.2165,317.0862,77.3869,282.721,0.00035803,5.416e-05,0.0,0 STARLINK-5441,1 54787U 22175AF  23221.70029196  .00005416  00000-0  35803-3 0  9990,2 54787  53.2165 317.0862 0000779  77.3869 282.7210 15.08844692 35406,6917.866,95.437,540.27,539.192,0.0
54787.0,STARLINK-5441,PAYLOAD,2023-08-10 10:17:39,15.08840686,9.51e-05,53.2182,313.8176,85.1174,274.9927,9.0985e-05,1.161e-05,0.0,0 STARLINK-5441,1 54787U 22175AF  23222.42893494  .00001161  00000-0  90985-4 0  9996,2 54787  53.2182 313.8176 0000951  85.1174 274.9927 15.08840686 35514,6917.878,95.438,540.401,539.085,0.0
54787.0,STARLINK-5441,PAYLOAD,2023-08-11 13:19:13,15.08847654,9.24e-05,53.2159,308.7616,71.866,288.2433,0.00029016,4.334e-05,0.0,0 STARLINK-5441,1 54787U 22175AF  23223.55501355  .00004334  00000-0  29016-3 0  9994,2 54787  53.2159 308.7616 0000924  71.8660 288.2433 15.08847654 35682,6917.857,95.437,540.361,539.083,0.0
